[{"CCSDS_OMM_VERS":"2.0","COMMENT":"GENERATED VIA SPACE-TRACK.ORG API","CREATION_DATE":"2021-12-27T07:06:14","ORIGINATOR":"18 SPCS","OBJECT_NAME":"GALILEO-FM2","OBJECT_ID":"2011-060B","CENTER_NAME":"EARTH","REF_FRAME":"TEME","TIME_SYSTEM":"UTC","MEAN_ELEMENT_THEORY":"SGP4","EPOCH":"2021-12-27T00:12:30.009888","MEAN_MOTION":"1.70475269","ECCENTRICITY":"0.00046000","INCLINATION":"56.9289","RA_OF_ASC_NODE":"26.0283","ARG_OF_PERICENTER":"302.2757","MEAN_ANOMALY":"235.3259","EPHEMERIS_TYPE":"0","CLASSIFICATION_TYPE":"U","NORAD_CAT_ID":"37847","ELEMENT_SET_NO":"999","REV_AT_EPOCH":"6340","BSTAR":"0.00000000000000","MEAN_MOTION_DOT":"-0.00000056","MEAN_MOTION_DDOT":"0.0000000000000","SEMIMAJOR_AXIS":"29600.173","PERIOD":"844.697","APOAPSIS":"23235.654","PERIAPSIS":"23208.422","OBJECT_TYPE":"PAYLOAD","RCS_SIZE":"LARGE","COUNTRY_CODE":"ESA","LAUNCH_DATE":"2011-10-21","SITE":"FRGUI","DECAY_DATE":null,"FILE":"3252147","GP_ID":"192535165","TLE_LINE0":"0 GALILEO-FM2","TLE_LINE1":"1 37847U 11060B   21361.00868067 -.00000056  00000-0  00000+0 0  9996","TLE_LINE2":"2 37847  56.9289  26.0283 0004600 302.2757 235.3259  1.70475269 63400"},{"CCSDS_OMM_VERS":"2.0","COMMENT":"GENERATED VIA SPACE-TRACK.ORG API","CREATION_DATE":"2021-12-27T20:15:43","ORIGINATOR":"18 SPCS","OBJECT_NAME":"GALILEO-FM2","OBJECT_ID":"2011-060B","CENTER_NAME":"EARTH","REF_FRAME":"TEME","TIME_SYSTEM":"UTC","MEAN_ELEMENT_THEORY":"SGP4","EPOCH":"2021-12-27T07:27:10.941120","MEAN_MOTION":"1.70475259","ECCENTRICITY":"0.00046050","INCLINATION":"56.9291","RA_OF_ASC_NODE":"26.0201","ARG_OF_PERICENTER":"302.4195","MEAN_ANOMALY":"60.4415","EPHEMERIS_TYPE":"0","CLASSIFICATION_TYPE":"U","NORAD_CAT_ID":"37847","ELEMENT_SET_NO":"999","REV_AT_EPOCH":"6329","BSTAR":"0.00000000000000","MEAN_MOTION_DOT":"-0.00000056","MEAN_MOTION_DDOT":"0.0000000000000","SEMIMAJOR_AXIS":"29600.174","PERIOD":"844.697","APOAPSIS":"23235.670","PERIAPSIS":"23208.408","OBJECT_TYPE":"PAYLOAD","RCS_SIZE":"LARGE","COUNTRY_CODE":"ESA","LAUNCH_DATE":"2011-10-21","SITE":"FRGUI","DECAY_DATE":null,"FILE":"3252683","GP_ID":"192562054","TLE_LINE0":"0 GALILEO-FM2","TLE_LINE1":"1 37847U 11060B   21361.31054330 -.00000056  00000-0  00000-0 0  9991","TLE_LINE2":"2 37847  56.9291  26.0201 0004605 302.4195  60.4415  1.70475259 63293"},{"CCSDS_OMM_VERS":"2.0","COMMENT":"GENERATED VIA SPACE-TRACK.ORG API","CREATION_DATE":"2021-12-28T02:26:55","ORIGINATOR":"18 SPCS","OBJECT_NAME":"GALILEO-FM2","OBJECT_ID":"2011-060B","CENTER_NAME":"EARTH","REF_FRAME":"TEME","TIME_SYSTEM":"UTC","MEAN_ELEMENT_THEORY":"SGP4","EPOCH":"2021-12-27T19:54:09.808416","MEAN_MOTION":"1.70475243","ECCENTRICITY":"0.00046190","INCLINATION":"56.9293","RA_OF_ASC_NODE":"26.0059","ARG_OF_PERICENTER":"302.5670","MEAN_ANOMALY":"18.6537","EPHEMERIS_TYPE":"0","CLASSIFICATION_TYPE":"U","NORAD_CAT_ID":"37847","ELEMENT_SET_NO":"999","REV_AT_EPOCH":"6329","BSTAR":"0.00000000000000","MEAN_MOTION_DOT":"-0.00000056","MEAN_MOTION_DDOT":"0.0000000000000","SEMIMAJOR_AXIS":"29600.176","PERIOD":"844.697","APOAPSIS":"23235.713","PERIAPSIS":"23208.369","OBJECT_TYPE":"PAYLOAD","RCS_SIZE":"LARGE","COUNTRY_CODE":"ESA","LAUNCH_DATE":"2011-10-21","SITE":"FRGUI","DECAY_DATE":null,"FILE":"3253114","GP_ID":"192595545","TLE_LINE0":"0 GALILEO-FM2","TLE_LINE1":"1 37847U 11060B   21361.82928019 -.00000056  00000-0  00000-0 0  9991","TLE_LINE2":"2 37847  56.9293  26.0059 0004619 302.5670  18.6537  1.70475243 63293"},{"CCSDS_OMM_VERS":"2.0","COMMENT":"GENERATED VIA SPACE-TRACK.ORG API","CREATION_DATE":"2021-12-30T19:37:11","ORIGINATOR":"18 SPCS","OBJECT_NAME":"GALILEO-FM2","OBJECT_ID":"2011-060B","CENTER_NAME":"EARTH","REF_FRAME":"TEME","TIME_SYSTEM":"UTC","MEAN_ELEMENT_THEORY":"SGP4","EPOCH":"2021-12-30T05:57:49.101408","MEAN_MOTION":"1.70475185","ECCENTRICITY":"0.00046710","INCLINATION":"56.9304","RA_OF_ASC_NODE":"25.9398","ARG_OF_PERICENTER":"303.3015","MEAN_ANOMALY":"62.6355","EPHEMERIS_TYPE":"0","CLASSIFICATION_TYPE":"U","NORAD_CAT_ID":"37847","ELEMENT_SET_NO":"999","REV_AT_EPOCH":"6334","BSTAR":"0.00000000000000","MEAN_MOTION_DOT":"-0.00000059","MEAN_MOTION_DDOT":"0.0000000000000","SEMIMAJOR_AXIS":"29600.183","PERIOD":"844.698","APOAPSIS":"23235.874","PERIAPSIS":"23208.222","OBJECT_TYPE":"PAYLOAD","RCS_SIZE":"LARGE","COUNTRY_CODE":"ESA","LAUNCH_DATE":"2011-10-21","SITE":"FRGUI","DECAY_DATE":null,"FILE":"3255239","GP_ID":"192761267","TLE_LINE0":"0 GALILEO-FM2","TLE_LINE1":"1 37847U 11060B   21364.24848497 -.00000059  00000-0  00000-0 0  9994","TLE_LINE2":"2 37847  56.9304  25.9398 0004671 303.3015  62.6355  1.70475185 63348"},{"CCSDS_OMM_VERS":"2.0","COMMENT":"GENERATED VIA SPACE-TRACK.ORG API","CREATION_DATE":"2022-01-04T03:16:13","ORIGINATOR":"18 SPCS","OBJECT_NAME":"GALILEO-FM2","OBJECT_ID":"2011-060B","CENTER_NAME":"EARTH","REF_FRAME":"TEME","TIME_SYSTEM":"UTC","MEAN_ELEMENT_THEORY":"SGP4","EPOCH":"2021-12-30T05:57:49.101408","MEAN_MOTION":"1.70475185","ECCENTRICITY":"0.00046710","INCLINATION":"56.9304","RA_OF_ASC_NODE":"25.9398","ARG_OF_PERICENTER":"303.3015","MEAN_ANOMALY":"62.6355","EPHEMERIS_TYPE":"0","CLASSIFICATION_TYPE":"U","NORAD_CAT_ID":"37847","ELEMENT_SET_NO":"999","REV_AT_EPOCH":"6346","BSTAR":"0.00000000000000","MEAN_MOTION_DOT":"-0.00000059","MEAN_MOTION_DDOT":"0.0000000000000","SEMIMAJOR_AXIS":"29600.183","PERIOD":"844.698","APOAPSIS":"23235.874","PERIAPSIS":"23208.222","OBJECT_TYPE":"PAYLOAD","RCS_SIZE":"LARGE","COUNTRY_CODE":"ESA","LAUNCH_DATE":"2011-10-21","SITE":"FRGUI","DECAY_DATE":null,"FILE":"3255760","GP_ID":"192983447","TLE_LINE0":"0 GALILEO-FM2","TLE_LINE1":"1 37847U 11060B   21364.24848497 -.00000059  00000-0  00000+0 0  9993","TLE_LINE2":"2 37847  56.9304  25.9398 0004671 303.3015  62.6355  1.70475185 63461"},{"CCSDS_OMM_VERS":"2.0","COMMENT":"GENERATED VIA SPACE-TRACK.ORG API","CREATION_DATE":"2022-01-01T20:19:10","ORIGINATOR":"18 SPCS","OBJECT_NAME":"GALILEO-FM2","OBJECT_ID":"2011-060B","CENTER_NAME":"EARTH","REF_FRAME":"TEME","TIME_SYSTEM":"UTC","MEAN_ELEMENT_THEORY":"SGP4","EPOCH":"2021-12-31T23:55:21.124128","MEAN_MOTION":"1.70475171","ECCENTRICITY":"0.00047100","INCLINATION":"56.9312","RA_OF_ASC_NODE":"25.8920","ARG_OF_PERICENTER":"303.7767","MEAN_ANOMALY":"55.1206","EPHEMERIS_TYPE":"0","CLASSIFICATION_TYPE":"U","NORAD_CAT_ID":"37847","ELEMENT_SET_NO":"999","REV_AT_EPOCH":"6336","BSTAR":"0.00000000000000","MEAN_MOTION_DOT":"-0.00000063","MEAN_MOTION_DDOT":"0.0000000000000","SEMIMAJOR_AXIS":"29600.185","PERIOD":"844.698","APOAPSIS":"23235.991","PERIAPSIS":"23208.108","OBJECT_TYPE":"PAYLOAD","RCS_SIZE":"LARGE","COUNTRY_CODE":"ESA","LAUNCH_DATE":"2011-10-21","SITE":"FRGUI","DECAY_DATE":null,"FILE":"3255244","GP_ID":"192860833","TLE_LINE0":"0 GALILEO-FM2","TLE_LINE1":"1 37847U 11060B   21365.99677227 -.00000063  00000-0  00000-0 0  9993","TLE_LINE2":"2 37847  56.9312  25.8920 0004710 303.7767  55.1206  1.70475171 63368"},{"CCSDS_OMM_VERS":"2.0","COMMENT":"GENERATED VIA SPACE-TRACK.ORG API","CREATION_DATE":"2022-01-04T04:36:13","ORIGINATOR":"18 SPCS","OBJECT_NAME":"GALILEO-FM2","OBJECT_ID":"2011-060B","CENTER_NAME":"EARTH","REF_FRAME":"TEME","TIME_SYSTEM":"UTC","MEAN_ELEMENT_THEORY":"SGP4","EPOCH":"2022-01-03T08:38:40.442784","MEAN_MOTION":"1.70475189","ECCENTRICITY":"0.00047690","INCLINATION":"56.9323","RA_OF_ASC_NODE":"25.8273","ARG_OF_PERICENTER":"304.4874","MEAN_ANOMALY":"64.8887","EPHEMERIS_TYPE":"0","CLASSIFICATION_TYPE":"U","NORAD_CAT_ID":"37847","ELEMENT_SET_NO":"999","REV_AT_EPOCH":"6353","BSTAR":"0.00000000000000","MEAN_MOTION_DOT":"-0.00000073","MEAN_MOTION_DDOT":"0.0000000000000","SEMIMAJOR_AXIS":"29600.182","PERIOD":"844.698","APOAPSIS":"23236.164","PERIAPSIS":"23207.931","OBJECT_TYPE":"PAYLOAD","RCS_SIZE":"LARGE","COUNTRY_CODE":"ESA","LAUNCH_DATE":"2011-10-21","SITE":"FRGUI","DECAY_DATE":null,"FILE":"3257744","GP_ID":"193043814","TLE_LINE0":"0 GALILEO-FM2","TLE_LINE1":"1 37847U 11060B   22003.36019031 -.00000073  00000-0  00000+0 0  9997","TLE_LINE2":"2 37847  56.9323  25.8273 0004769 304.4874  64.8887  1.70475189 63532"},{"CCSDS_OMM_VERS":"2.0","COMMENT":"GENERATED VIA SPACE-TRACK.ORG API","CREATION_DATE":"2022-01-03T20:09:25","ORIGINATOR":"18 SPCS","OBJECT_NAME":"GALILEO-FM2","OBJECT_ID":"2011-060B","CENTER_NAME":"EARTH","REF_FRAME":"TEME","TIME_SYSTEM":"UTC","MEAN_ELEMENT_THEORY":"SGP4","EPOCH":"2022-01-03T15:14:48.082272","MEAN_MOTION":"1.70475192","ECCENTRICITY":"0.00047750","INCLINATION":"56.9325","RA_OF_ASC_NODE":"25.8198","ARG_OF_PERICENTER":"304.5402","MEAN_ANOMALY":"233.6633","EPHEMERIS_TYPE":"0","CLASSIFICATION_TYPE":"U","NORAD_CAT_ID":"37847","ELEMENT_SET_NO":"999","REV_AT_EPOCH":"6341","BSTAR":"0.00000000000000","MEAN_MOTION_DOT":"-0.00000074","MEAN_MOTION_DDOT":"0.0000000000000","SEMIMAJOR_AXIS":"29600.182","PERIOD":"844.698","APOAPSIS":"23236.181","PERIAPSIS":"23207.913","OBJECT_TYPE":"PAYLOAD","RCS_SIZE":"LARGE","COUNTRY_CODE":"ESA","LAUNCH_DATE":"2011-10-21","SITE":"FRGUI","DECAY_DATE":null,"FILE":"3255250","GP_ID":"192960666","TLE_LINE0":"0 GALILEO-FM2","TLE_LINE1":"1 37847U 11060B   22003.63527873 -.00000074  00000-0  00000-0 0  9997","TLE_LINE2":"2 37847  56.9325  25.8198 0004775 304.5402 233.6633  1.70475192 63411"}]